TLE2=2 40934   6.0037 129.0689 0012089  67.9313 292.2636 14.77096269117484

[40360]
VERSION=1.1
NAME=RESURS P2
NICKNAME=RESURS P2
TLE1=1 40360U 14087A   17336.43286534  .00001093  00000-0  37457-4 0  9991
TLE2=2 40360  97.2756  67.1751 0007845 267.7050 222.7292 15.32298902164142

[25263]
VERSION=1.1
NAME=IRIDIUM 61 [+]
NICKNAME=IRIDIUM 61 [+]
TLE1=1 25263U 98018B   17335.83600364  .00000238  00000-0  71316-4 0  9998
TLE2=2 25263  86.4255 248.7373 0001919  80.0816 280.0599 14.38692057 30660

[40367]
VERSION=1.1
NAME=FENGYUN 2G
NICKNAME=FENGYUN 2G
TLE1=1 40367U 14090A   17335.94446750 -.00000320  00000-0  00000-0 0  9998
TLE2=2 40367   0.1742 205.5955 0002779  93.2974 216.6455  1.00265410 10768

[41850]
VERSION=1.1
NAME=CELTEE 1
NICKNAME=CELTEE 1
TLE1=1 41850U 16067C   17336.21203758 -.00000148  00000-0 -76319-5 0  9992
TLE2=2 41850  97.9376  56.7505 0010039  98.4887 261.7472 14.96697752 57632

[42705]
VERSION=1.1
NAME=ICECUBE
NICKNAME=ICECUBE
TLE1=1 42705U 98067LN  17336.21374746  .00034120  00000-0  35493-3 0  9999
TLE2=2 42705  51.6419 274.3274 0003153 139.8922 220.2306 15.64251227 31139

[37855]
VERSION=1.1
NAME=M-CUBED & EXP-1 PRIME
NICKNAME=M-CUBED & EXP-1 PRIME
TLE1=1 37855U 11061F   17335.91088824  .00002542  00000-0  13822-3 0  9998
TLE2=2 37855 101.7142 292.5588 0178459 305.8580  52.6169 15.03839512331528

[42955]
VERSION=1.1
NAME=IRIDIUM 133 [+]
NICKNAME=IRIDIUM 133 [+]
TLE1=1 42955U 17061A   17335.89039686  .00000078  00000-0  20757-4 0  9998
TLE2=2 42955  86.3999 248.6790 0002367 101.2989 258.8473 14.34216619  7680

[19650]
VERSION=1.1
NAME=SL-16 R/B
NICKNAME=SL-16 R/B
TLE1=1 19650U 88102B   17335.60124668  .00000271  00000-0  16192-3 0  9994
TLE2=2 19650  71.0006  23.0710 0016540 285.5790  74.3507 14.15763713499413

[42939]
VERSION=1.1
NAME=COSMOS 2522 (752)
NICKNAME=COSMOS 2522 (752)
TLE1=1 42939U 17055A   17335.60875728 -.00000019  00000-0  00000+0 0  9997
TLE2=2 42939  64.7758 299.1874 0009805 253.8224 199.2432  2.13101958  1500

[42788]
VERSION=1.1
NAME=SUCHAI
NICKNAME=SUCHAI
TLE1=1 42788U 17036Z   17335.85492287  .00001794  00000-0  83080-4 0  9994
TLE2=2 42788  97.4299  33.6321 0013387  53.2215 307.0247 15.21329251 24582

[25723]
VERSION=1.1
NAME=SL-8 R/B
NICKNAME=SL-8 R/B
TLE1=1 25723U 99022C   17336.47338283  .00007394  00000-0  10671-3 0  9990
TLE2=2 25723  48.4159 348.4479 0008503 124.7116 235.4633 15.56940656 32692

[29051]
VERSION=1.1
NAME=FORMOSAT-3 FM4
NICKNAME=FORMOSAT-3 FM4
TLE1=1 29051U 06011E   17335.87590579  .00000134  00000-0  67977-4 0  9992
TLE2=2 29051  72.0043 187.1684 0066559  90.5757 270.3007 14.28634000609567

[40074]
VERSION=1.1
NAME=UKUBE-1
NICKNAME=UKUBE-1
TLE1=1 40074U 14037F   17336.50210718  .00000422  00000-0  58230-4 0  9994
TLE2=2 40074  98.3638  99.1741 0003618 217.8101 142.2856 14.83665707184135

[24794]
VERSION=1.1
NAME=IRIDIUM 6 [+]
NICKNAME=IRIDIUM 6 [+]
TLE1=1 24794U 97020C   17336.45944514  .00039622 -85480-6  52677-3 0  9994
TLE2=2 24794  86.3975 248.3496 0295104 175.0467 185.3819 15.20518878 77333

[5730]
VERSION=1.1
NAME=SL-8 R/B
NICKNAME=SL-8 R/B
TLE1=1 05730U 71119B   17336.14701920  .00001214  00000-0  81403-4 0  9996
TLE2=2 05730  73.8927 200.7155 0696841  48.7107 317.1913 14.02191651229237

[37849]
VERSION=1.1
NAME=SUOMI NPP
NICKNAME=SUOMI NPP
TLE1=1 37849U 11061A   17335.90574709 -.00000004  00000-0  18664-4 0  9994
TLE2=2 37849  98.7177 272.2118 0001440  64.4535 337.6668 14.19555112315890

[42856]
VERSION=1.1
NAME=FLOCK 2K-45
NICKNAME=FLOCK 2K-45
TLE1=1 42856U 17042AH  17336.15859827  .00006754  00000-0  20132-3 0  9997
TLE2=2 42856  96.9946 237.7000 0012715 101.3316 258.9357 15.34889008 21390

[36395]
VERSION=1.1
NAME=SDO
NICKNAME=SDO
TLE1=1 36395U 10005A   17333.52638882 -.00000014  00000-0  00000+0 0  9996
TLE2=2 36395  28.9531 137.4734 0001678 111.9568 267.0140  1.00271892 28738

[41932]
VERSION=1.1
NAME=ITF-2
NICKNAME=ITF-2
TLE1=1 41932U 98067KU  17335.88834864  .00023719  00000-0  23088-3 0  9993
TLE2=2 41932  51.6392 269.1491 0005116 153.1374 206.9888 15.66127536 49754

[41175]
VERSION=1.1
NAME=GSAT0208 (PRN E08)
NICKNAME=GSAT0208 (PRN E08)
TLE1=1 41175U 15079B   17331.69990441  .00000077  00000-0  00000+0 0  9990
TLE2=2 41175  54.9147 187.1985 0002340 317.4765  42.5974  1.70473326 12110

[6153]
VERSION=1.1
NAME=OAO 3 (COPERNICUS)
NICKNAME=OAO 3 (COPERNICUS)
TLE1=1 06153U 72065A   17335.91008367  .00000053  00000-0  15868-4 0  9998
TLE2=2 06153  35.0056 178.3072 0006839 350.3207 135.0686 14.57859571405370

[41973]
VERSION=1.1
NAME=FLOCK 3P-9
NICKNAME=FLOCK 3P-9
TLE1=1 41973U 17008AB  17335.91455308  .00001558  00000-0  68175-4 0  9994
TLE2=2 41973  97.4769  36.7202 0007459 334.4237  25.6630 15.23545325 43980

[41974]
VERSION=1.1
NAME=FLOCK 3P-10
NICKNAME=FLOCK 3P-10
TLE1=1 41974U 17008AC  17336.16512000  .00004627  00000-0  19631-3 0  9998
TLE2=2 41974  97.4776  37.0024 0007300 335.5853  24.5037 15.23584227 43901

[28222]
VERSION=1.1
NAME=CZ-2C R/B
NICKNAME=CZ-2C R/B
TLE1=1 28222U 04012C   17335.90525187  .00000987  00000-0  64114-4 0  9993
TLE2=2 28222  97.5482 289.4654 0047381 332.5383  92.0311 15.09511132745876

[26463]
VERSION=1.1
NAME=CLUSTER II-FM5 (RUMBA)
NICKNAME=CLUSTER II-FM5 (RUMBA)
TLE1=1 26463U 00045A   17337.03766698  .00000580  00000-0  00000+0 0  9998
TLE2=2 26463 133.5181 334.3085 4701734 162.4836   0.3807  0.44236921 18825

[42706]
VERSION=1.1
NAME=PHOENIX
NICKNAME=PHOENIX
TLE1=1 42706U 98067LP  17336.22300328  .00019416  00000-0  22421-3 0  9994
TLE2=2 42706  51.6385 275.1139 0001873 127.3621 232.7544 15.61916517 31056

[25320]
VERSION=1.1
NAME=IRIDIUM 71 [-]
NICKNAME=IRIDIUM 71 [-]
TLE1=1 25320U 98026B   17335.60436410  .00000157  00000-0  44204-4 0  9991
TLE2=2 25320  86.3978 171.1389 0003514 122.0945 238.0595 14.39120680 27297

[42049]
VERSION=1.1
NAME=FLOCK 3P-31
NICKNAME=FLOCK 3P-31
TLE1=1 42049U 17008DF  17335.64515200  .00001524  00000-0  66754-4 0  9991
TLE2=2 42049  97.4771  36.4717 0007389 337.4736  22.6175 15.23552697 42648

[42045]
VERSION=1.1
NAME=FLOCK 3P-29
NICKNAME=FLOCK 3P-29
TLE1=1 42045U 17008DB  17335.89944285  .00004818  00000-0  20419-3 0  9999
TLE2=2 42045  97.4776  36.7424 0007202 335.3087  24.7805 15.23596917 43240

[42729]
VERSION=1.1
NAME=AALTO-2
NICKNAME=AALTO-2
TLE1=1 42729U 98067MJ  17336.26955885  .00022423  00000-0  25751-3 0  9998
TLE2=2 42729  51.6388 275.4253 0002300 180.6807 179.4184 15.61957111 29507

[28129]
VERSION=1.1
NAME=GPS BIIR-10 (PRN 22)
NICKNAME=GPS BIIR-10 (PRN 22)
TLE1=1 28129U 03058A   17335.28685818  .00000098  00000-0  00000+0 0  9999
TLE2=2 28129  52.9614 150.8172 0073615 265.5707  93.6218  2.00564640102222

[27939]
VERSION=1.1
NAME=MOZHAYETS 4 (RS-22)
NICKNAME=RS-22
TLE1=1 27939U 03042A   17336.55885597  .00000144  00000-0  34365-4 0  9995
TLE2=2 27939  97.9626 116.1304 0014011  55.9416  12.2877 14.66635349757995

[42068]
VERSION=1.1
NAME=LEMUR-2-AUSTINTACIOUS
NICKNAME=LEMUR-2-AUSTINTACIOUS
TLE1=1 42068U 98067LD  17336.19344031  .00027640  00000-0  25575-3 0  9991
TLE2=2 42068  51.6377 268.8976 0005752 174.1940 185.9124 15.67292243 42201

[42839]
VERSION=1.1
NAME=LEMUR-2-MONSON
NICKNAME=LEMUR-2-MONSON
TLE1=1 42839U 17042Q   17336.31762926  .00000361  00000-0  41579-4 0  9996
TLE2=2 42839  97.6080 241.0268 0014172 127.6741 232.5766 14.91278904 21014

[41606]
VERSION=1.1
NAME=FLOCK 2P-6
NICKNAME=FLOCK 2P-6
TLE1=1 41606U 16040H   17335.86711719  .00005854  00000-0  24762-3 0  9993
TLE2=2 41606  97.4411  37.1937 0010107 198.4331 161.6541 15.23549775 80227

[41994]
VERSION=1.1
NAME=LEMUR-2-SPIRE-MINIONS
NICKNAME=LEMUR-2-SPIRE-MINIONS
TLE1=1 41994U 17008AY  17335.86448406  .00002378  00000-0  10349-3 0  9992
TLE2=2 41994  97.4768  36.6278 0007042 340.6269  19.4699 15.23216036 43379

[28480]
VERSION=1.1
NAME=CZ-2C R/B
NICKNAME=CZ-2C R/B
TLE1=1 28480U 04046B   17336.26302216  .00000017  00000-0  21303-4 0  9999
TLE2=2 28480  98.1934  61.6144 0143199  88.6228 334.6585 14.25658550678186

[41992]
VERSION=1.1
NAME=LEMUR-2-MIA-GRACE
NICKNAME=LEMUR-2-MIA-GRACE
TLE1=1 41992U 17008AW  17336.44783498  .00002158  00000-0  94079-4 0  9997
TLE2=2 41992  97.4769  37.2349 0006964 339.3443  20.7511 15.23258386 43467

[41888]
VERSION=1.1
NAME=CYGFM08
NICKNAME=CYGFM08
TLE1=1 41888U 16078E   17336.49021263  .00000876  00000-0  48868-4 0  9997
TLE2=2 41888  34.9510  60.5273 0015479  42.6054 317.5855 15.13990208 53351

[41849]
VERSION=1.1
NAME=RAVAN
NICKNAME=RAVAN
TLE1=1 41849U 16067B   17335.91063916  .00001754  00000-0  15590-3 0  9990
TLE2=2 41849  97.9388  56.6939 0010208 101.9668 258.2698 14.97419953 57602

[42728]
VERSION=1.1
NAME=QBITO
NICKNAME=QBITO
TLE1=1 42728U 98067MH  17336.39907073  .00020781  00000-0  23956-3 0  9997
TLE2=2 42728  51.6402 274.8032 0002348 182.0187 178.0798 15.61911944 29511

[36799]
VERSION=1.1
NAME=TISAT 1
NICKNAME=TISAT 1
TLE1=1 36799U 10035E   17336.31202727  .00000605  00000-0  67735-4 0  9990
TLE2=2 36799  98.0817 102.6781 0013420 131.7431 228.4935 14.90622634400828

[41963]
VERSION=1.1
NAME=FLOCK 3P-27
NICKNAME=FLOCK 3P-27
TLE1=1 41963U 17008R   17335.87071431  .00003506  00000-0  14955-3 0  9990
TLE2=2 41963  97.4768  36.6057 0007988 332.8956  27.1863 15.23571392 43890

[42039]
VERSION=1.1
NAME=FLOCK 3P-15
NICKNAME=FLOCK 3P-15
TLE1=1 42039U 17008CV  17335.73691823  .00001418  00000-0  62319-4 0  9991
TLE2=2 42039  97.4765  36.6322 0007525   0.9226 359.2024 15.23545382 43211

[25527]
VERSION=1.1
NAME=IRIDIUM 2 [-]
NICKNAME=IRIDIUM 2 [-]
TLE1=1 25527U 98066A   17335.89589524  .00001505  00000-0  74202-4 0  9999
TLE2=2 25527  85.5289 293.2098 0008596 178.3605 181.7664 15.17034620 43785

[42702]
VERSION=1.1
NAME=COLUMBIA
NICKNAME=COLUMBIA
TLE1=1 42702U 98067LK  17336.32920188  .00085465  00000-0  59007-3 0  9990
TLE2=2 42702  51.6342 269.0286 0004749 159.3040 200.8152 15.73816394 31152

[32790]
VERSION=1.1
NAME=CANX-2
NICKNAME=CANX-2
TLE1=1 32790U 08021H   17335.83658440  .00000275  00000-0  35854-4 0  9992
TLE2=2 32790  97.5553 350.6374 0013211 340.8797  19.1923 14.87731154519765

[41985]
VERSION=1.1
NAME=FLOCK 3P-86
NICKNAME=FLOCK 3P-86
